{"fetched_at":"2026-03-29T16:36:15Z","count":15609,"tles":[{"name":"STARLINK-11142 [DTC]","line1":"1 59957U 24107N   26087.62141561  .00007532  00000+0  66952-4 0  9996","line2":"2 59957  53.1587 157.6222 0001508  98.3594 261.7595 15.69718395105132","category":"Starlink"}]}